[{"OBJECT_NAME":"STARLINK-35064","OBJECT_ID":"2025-200M","EPOCH":"2026-03-09T17:06:40.437792","MEAN_MOTION":15.05638857,"ECCENTRICITY":9.683e-5,"INCLINATION":97.6022,"RA_OF_ASC_NODE":139.8093,"ARG_OF_PERICENTER":132.5439,"MEAN_ANOMALY":227.587,"EPHEMERIS_TYPE":0,"CLASSIFICATION_TYPE":"U","NORAD_CAT_ID":65531,"ELEMENT_SET_NO":999,"REV_AT_EPOCH":2913,"BSTAR":0.00027821109,"MEAN_MOTION_DOT":3.955e-5,"MEAN_MOTION_DDOT":0},{"OBJECT_NAME":"NOAA 16 DEB","OBJECT_ID":"2000-055NX","EPOCH":"2026-03-08T23:11:13.556832","MEAN_MOTION":15.01016664,"ECCENTRICITY":0.00157984,"INCLINATION":98.8636,"RA_OF_ASC_NODE":259.6913,"ARG_OF_PERICENTER":295.8562,"MEAN_ANOMALY":64.1029,"EPHEMERIS_TYPE":0,"CLASSIFICATION_TYPE":"U","NORAD_CAT_ID":41658,"ELEMENT_SET_NO":999,"REV_AT_EPOCH":9741,"BSTAR":0.010110988,"MEAN_MOTION_DOT":0.00131742,"MEAN_MOTION_DDOT":0}]
